IRIDIUM 39              
1 25042U 97069D   25049.63447923  .00001121  00000+0  29050-3 0  9995
2 25042  86.3861 261.9634 0017571 349.5380  10.5456 14.48912537431790
IRIDIUM 38              
1 25043U 97069E   25049.87715736  .00000807  00000+0  26089-3 0  9991
2 25043  86.3924 282.9589 0003720 105.4479 254.7129 14.37922579428950
IRIDIUM 42              
1 25077U 97077A   25049.94763593  .00000653  00000+0  21752-3 0  9990
2 25077  86.3937 288.9577 0002530  99.5638 260.5845 14.36174461424226
IRIDIUM 44              
1 25078U 97077B   25049.87344714  .00000822  00000+0  25455-3 0  9995
2 25078  86.3912 271.2093 0003801  73.1302 287.0314 14.40046092426675
IRIDIUM 45              
1 25104U 97082A   25049.85911814  .00020152  00000+0  82426-3 0  9999
2 25104  86.3583 105.1295 0131154  54.3521 306.9849 15.16558231434079
IRIDIUM 24              
1 25105U 97082B   25049.92874414  .00000959  00000+0  28690-3 0  9998
2 25105  86.3935 130.4677 0013556 107.0381 253.2305 14.41894657426176
IRIDIUM 51              
1 25262U 98018A   25049.90013727  .00038460  00000+0  11255-2 0  9998
2 25262  86.3865 113.9718 0103227 342.8779  16.8994 15.29851896428881
IRIDIUM 57              
1 25273U 98019B   25049.90800790  .00000873  00000+0  29539-3 0  9997
2 25273  86.4004 194.7620 0002112  94.4833 265.6605 14.35738145407810
